"Fcilty_typ","State","Fcilty_nam","Shp_num_an","Shp_centre","Street_add","Locality","Postcode","Hrs_of_bus","Wheelchair","Display_wd","Fcilty_typ_2","Xcoord","Ycoord","uuid","result","Audio"
"MO","NSW","Queanbeyan","Shop 47","Riverside Plaza","131 Monaro Street","Queanbeyan","2620","09:00-17:00 Monday to Friday, excluding Public Holidays","YES","1.5","http://www.medicareaustralia.gov.au/public/claims/offices.jsp","149.23532000","-35.35248400","67","999",""
"MO","NSW","Bathurst","Shop 25","Bathurst Chase","39 William Street","Bathurst","2795","09:00-17:00 Monday to Friday, excluding Public Holidays","YES","1.5","http://www.medicareaustralia.gov.au/public/claims/offices.jsp","149.58319300","-33.41619000","10","10",""
"MO","NSW","Mudgee","Shop 6","The Mortimer Centre","90-96 Mortimer Street","Mudgee","2850","09:00-16:30  Monday to Friday, excluding Public Holidays","YES","1.5","http://www.medicareaustralia.gov.au/public/claims/offices.jsp","149.58612100","-32.59275700","53","100000",""
"MO","NSW","Goulburn","Shop 7","Central Arcade","158-162 Auburn Street","Goulburn","2580","09:00-17:00 Monday to Friday, excluding Public Holidays","YES","1.5","http://www.medicareaustralia.gov.au/public/claims/offices.jsp","149.71772500","-34.75528500","33","10",""
"MO","NSW","Narrabri","","","153-155 Maitland Street","Narrabri","2390","09:00-16:30  Monday to Friday, excluding Public Holidays","YES","1.5","http://www.medicareaustralia.gov.au/public/claims/offices.jsp","149.78224700","-30.32399600","56","100000",""
"MO","NSW","Bega","Shop 6","","248 Carp Street","Bega","2550","09:00-16:30  Monday to Friday, excluding Public Holidays","YES","1.5","http://www.medicareaustralia.gov.au/public/claims/offices.jsp","149.83988800","-36.67403300","11","100000",""
"MO","NSW","Moree","","","11 Auburn Street","Moree","2400","08:30 -16:30  Monday to Friday, excluding Public Holidays","YES","1.5","http://www.medicareaustralia.gov.au/public/claims/offices.jsp","149.84008600","-29.46071800","52","10",""
"MO","NSW","Merimbula","Shop 2","","11 Merimbula Drive","Merimbula","2548","09:00-16:30  Monday to Friday, excluding Public Holidays","NO","1.5","http://www.medicareaustralia.gov.au/public/claims/offices.jsp","149.90923200","-36.88775100","50","100000",""
"MO","NSW","Narooma","Shop 35","Narooma Plaza","185 Princes Highway","Narooma","2546","09:00-16:30  Monday to Friday, excluding Public Holidays","YES","1.5","http://www.medicareaustralia.gov.au/public/claims/offices.jsp","150.12624700","-36.22330100","55","200002",""
"MO","NSW","Lithgow","Shop 49","Lithgow Valley Shopping Centre","Lithgow Street","Lithgow","2790","09:00-16:30  Monday to Friday, excluding Public Holidays","YES","1.5","http://www.medicareaustralia.gov.au/public/claims/offices.jsp","150.15284500","-33.48557300","45","200002",""
"MO","NSW","Castle Hill","Shop 518","Castle Towers Shopping Centre","6-14 Castle Street","Castle Hill","2154","09:00-17:00 Monday to Friday, 9:00-19:00 Thursdays, 09:00-12:30 Saturdays, excluding Public Holidays","YES","1.5","http://www.medicareaustralia.gov.au/public/claims/offices.jsp","151.00552600","-33.73187800","20","10",""
"MO","NSW","Engadine","Shop 14","Engadine Court","101 Caldarra Avenue","Engadine","2233","09:00-17:00 Monday to Friday, excluding Public Holidays","YES","1.5","http://www.medicareaustralia.gov.au/public/claims/offices.jsp","151.01464600","-34.06554000","29","100000",""
"MO","NSW","Bankstown","Shop 219b","Bankstown Centro","Cnr Lady Cutler Avenue & North Terrace","Bankstown","2200","09:00-17:00 Monday to Friday, 09:00-12:30 Saturdays, excluding Public Holidays","YES","1.5","http://www.medicareaustralia.gov.au/public/claims/offices.jsp","151.04013800","-33.91717800","8","10",""
"MO","NSW","Roselands","Shop 92, Lower Ground Floor","Centro Roselands","Roselands Drive","Roselands","2196","09:00-17:00  Monday to Friday, 09:00-12:30 Saturdays, excluding Public Holidays","YES","1.5","http://www.medicareaustralia.gov.au/public/claims/offices.jsp","151.06884300","-33.93504600","70","999",""
"MO","NSW","Eastwood","Shop 25","Eastwood Centre","160 Rowe Street","Eastwood","2122","09:00-17:00 Monday to Friday, excluding Public Holidays","YES","1.5","http://www.medicareaustralia.gov.au/public/claims/offices.jsp","151.08116100","-33.79168300","28","100000","YES"
"MO","NSW","Hornsby","Shop 3111, Level 3","Westfield Hornsby","Cnr Florence & Hunter Streets","Hornsby","2077","09:00-17:00 Monday to Friday, 09:00-19:00 Thursdays, 09:00-12:30 Saturdays, excluding Public Holidays","YES","1.5","http://www.medicareaustralia.gov.au/public/claims/offices.jsp","151.09869300","-33.70461700","37","100000",""
"MO","NSW","Miranda","Shop 1006, Level 1","Westfield Miranda","600 The Kingsway","Miranda","2228","08:30-17:00 Monday to Friday, 8:30-18:00 Thursdays, 08:30-12:30 Saturdays, excluding Public Holidays","YES","1.5","http://www.medicareaustralia.gov.au/public/claims/offices.jsp","151.10042800","-34.03401400","51","80",""
"MO","NSW","Burwood","Shop 334-335, Level 2","Westfield Burwood","100 Burwood Road","Burwood","2134","09:00-17:00 Monday to Friday, 09:00-12:30 Saturdays, excluding Public Holidays","YES","1.5","http://www.medicareaustralia.gov.au/public/claims/offices.jsp","151.10463500","-33.87424600","16","100000",""
"MO","NSW","Hurstville","Shop 218b, Level 1","Westfield Hurstville","Cnr Cross Street & Park Road","Hurstville","2220","09:00-17:00 Monday to Friday, 9:00-19:00 Thursdays, 09:00-12:30 Saturdays, excluding Public Holidays","YES","1.5","http://www.medicareaustralia.gov.au/public/claims/offices.jsp","151.10475600","-33.96506500","38","999","YES"
"MO","NSW","Inverell","","","166 Byron Street","Inverell","2360","09:00-16:30  Monday to Friday, excluding Public Holidays","YES","1.5","http://www.medicareaustralia.gov.au/public/claims/offices.jsp","151.11396300","-29.77180600","39","100000",""
"MO","NSW","North Ryde","Shop 46, Level 2","Macquarie Centre","Cnr Herring & Waterloo Road","North Ryde","2133","09:00-17:00 Monday to Friday, 9:00-19:00 Thursdays, 09:00-12:30 Saturdays, excluding Public Holidays","YES","1.5","http://www.medicareaustralia.gov.au/public/claims/offices.jsp","151.11873500","-33.77696000","58","999","YES"
"MO","NSW","Leichhardt","Shop 31,","Leichhardt Marketplace,","138 Flood Street","Leichhardt","2040","09:00-17:00 Monday to Friday, excluding Public Holidays","YES","1.5","http://www.medicareaustralia.gov.au/public/claims/offices.jsp","151.14990200","-33.88440400","247","100000",""
"MO","NSW","Singleton","","","6 William Street","Singleton","2330","8:30-16:30 Monday to Friday, excluding Public Holidays","YES","1.5","http://www.medicareaustralia.gov.au/public/claims/offices.jsp","151.16962312","-32.56410816","72","999",""
"MO","NSW","Chatswood","Shop 527-528, Level 5","Westfield Chatswood","1 Anderson Street","Chatswood","2067","09:00-17:00 Monday to Friday, 9:00-19:00 Thursdays, 09:00-12:30 Saturdays, excluding Public Holidays","YES","1.5","http://www.medicareaustralia.gov.au/public/claims/offices.jsp","151.18308600","-33.79679400","23","999",""
"MO","NSW","Sydney - Town Hall","Shop 30-31","Town Hall Arcade","464-480 Kent Street","Sydney","2000","08:30-17:00 Monday to Friday, excluding Public Holidays","YES","1.5","http://www.medicareaustralia.gov.au/public/claims/offices.jsp","151.20541000","-33.87378200","79","100000",""
"MO","NSW","North Sydney","Shop P40-P41, Gound Floor","Northpoint","100 Miller Street","North Sydney","2060","09:00-17:00 Monday-Friday, excluding Public Holidays","YES","2","http://www.medicareaustralia.gov.au/public/claims/offices.jsp","151.20667700","-33.83795800","59","999",""
"MO","NSW","Sydney - Wynyard","Shop G23","Metcentre","273 George Street","Sydney","2000","08:30-17:00 Monday to Friday, excluding Public Holidays","YES","2","http://www.medicareaustralia.gov.au/public/claims/offices.jsp","151.20722400","-33.86507200","86","100000",""
"MO","NSW","Sydney - King Street","Shop 5R 07-09","Glasshouse Shopping Centre","135 King Street","Sydney","2000","08:30-17:00 Monday to Friday, excluding Public Holidays","YES","1.5","http://www.medicareaustralia.gov.au/public/claims/offices.jsp","151.20900700","-33.86906400","49","100000",""
"MO","NSW","Pagewood","Shop 131B, Ground Floor","Westfield Eastgardens","152 Bunnerong Road","Eastgardens","2036","09:00-17:00 Monday to Friday, 09:00-12:30 Saturdays, excluding Public Holidays","YES","1.5","http://www.medicareaustralia.gov.au/public/claims/offices.jsp","151.22691300","-33.94587900","62","101000",""
"MO","NSW","Spit Junction","Shop 23","Bridgepoint Centre","Cnr Military & Brady Roads","Spit Junction","2088","09:00-17:00 Monday to Friday, excluding Public Holidays","YES","1.5","http://www.medicareaustralia.gov.au/public/claims/offices.jsp","151.24043500","-33.82370100","73","999",""
"MO","NSW","Bondi Junction","Shop 7-8","Tiffany Plaza,","422 Oxford Street (above Bondi Junction Interchange)","Bondi Junction","2022","09:00-17:00 Monday to Friday, 09:00-12:30 Saturdays, excluding Public Holidays","YES","1.5","http://www.medicareaustralia.gov.au/public/claims/offices.jsp","151.24835600","-33.89187500","13","100000",""
"MO","","Gladstone","Shop 31","Gladstone Central Shopping Centre","45 Dawson Road","Gladstone","4680","09:00-17:00 Monday to Friday, 09:00-12:30 Saturdays, excluding Public Holidays","YES","1.5","http://www.medicareaustralia.gov.au/public/claims/offices.jsp","151.24887853","-23.85534942","107","999",""
"MO","NSW","Brookvale","Shop 188, Level 1","Warringah Mall","Cnr Old Pittwater Rd & Condamine St","Brookvale","2100","09:00-17:00 Monday to Friday, 9:00-19:00 Thursdays, 09:00-12:30 Saturdays, excluding Public Holidays","YES","1.5","http://www.medicareaustralia.gov.au/public/claims/offices.jsp","151.26596100","-33.76820100","15","999",""
"MO","Qld","Dalby","Shop 23","Dalby Shoppingworld","Cunningham Street","Dalby","4405","09:00-16:30  Monday to Friday, excluding Public Holidays","YES","1.5","http://www.medicareaustralia.gov.au/public/claims/offices.jsp","151.26297700","-27.18390300","105","100000",""
"MO","NSW","Warriewood","Shop 20","Centro Warriewood","Jacksons Road","Warriewood","2102","09:00-17:00 Monday to Friday, excluding Public Holidays","YES","1.5","http://www.medicareaustralia.gov.au/public/claims/offices.jsp","151.29620800","-33.69662400","84","999",""
"MO","NSW","Woy Woy","Shop 32","Deepwater Plaza","Railway Street","Woy Woy","2256","09:00-17:00 Monday to Friday, excluding Public Holidays","YES","1.5","http://www.medicareaustralia.gov.au/public/claims/offices.jsp","151.31508500","-33.49279300","81","200002",""
"MO","NSW","Gosford","","","9 Watt Street","Gosford","2250","08:30-17:00 Monday to Friday, 09:00-12:30 Saturdays, excluding Public Holidays","YES","1.5","http://www.medicareaustralia.gov.au/public/claims/offices.jsp","151.34367400","-33.42436200","32","10",""
"MO","NSW","Cessnock","Shop G008","Cessnock Market Place","205 Wollombi Rd","Cessnock","2325","09:00-16:30  Monday to Friday, excluding Public Holidays","YES","2","http://www.medicareaustralia.gov.au/public/claims/offices.jsp","151.35470300","-32.83274400","21","10",""
"MO","NSW","Erina","Shop T334","Erina Fair","Terrigal Drive","Erina","2250","09:00-17:00 Monday to Friday, 09:00-12:30 Saturdays, excluding Public Holiday","YES","1.5","http://www.medicareaustralia.gov.au/public/claims/offices.jsp","151.39327500","-33.43733100","30","999",""
"MO","NSW","Tuggerah","Shop 1142,","Westfield Tuggerah,","Corner Of Wyong Road And Gavenlock Road","Tuggerah","2259","09:00-17:00 Monday to Friday, 09:00-12:30 Saturdays, excluding Public Holidays","YES","1.5","http://www.medicareaustralia.gov.au/public/claims/offices.jsp","151.41557300","-33.30691400","250","999",""
"MO","NSW","The Entrance","Shop 16","Lakeside Plaza","Cnr Denning St & Entrance Rd","The Entrance","2261","09:00-16:30  Monday to Friday, excluding Public Holidays","YES","1.5","http://www.medicareaustralia.gov.au/public/claims/offices.jsp","151.49610400","-33.34420200","77","999",""
"MO","NSW","Lake Haven","Shop 27","Lake Haven Shopping Centre","Lake Haven Drive","Lake Haven","2263","09:00-17:00 Monday to Friday, 09:00-12:30 Saturdays, excluding Public Holidays","YES","1.5","http://www.medicareaustralia.gov.au/public/claims/offices.jsp","151.49819800","-33.24547400","43","999",""
"MO","NSW","Maitland","Shop 6","Pender Place Shopping Centre","44 Elgin Street","Maitland","2320","09:00-17:00 Monday to Friday, 09:00-12:30 Saturdays, excluding Public Holidays","YES","1.5","http://www.medicareaustralia.gov.au/public/claims/offices.jsp","151.55410500","-32.73432300","48","100000",""
"MO","NSW","Toronto","","","2 - 6 Donnelly Avenue","Toronto","2283","08:30 - 17:00  Monday to Friday, excluding Public Holidays","YES","2","http://www.medicareaustralia.gov.au/public/claims/offices.jsp","151.59468100","-33.01165700","78","999","NO"
"MO","NSW","Armidale","Shop 1A","K-Mart Plaza","201 - 203 Beardy Street","Armidale","2350","09:00-17:00 Monday to Friday, excluding Public Holidays","YES","1.5","http://www.medicareaustralia.gov.au/public/claims/offices.jsp","151.66414500","-30.51274100","6","100000",""
"MO","NSW","Wallsend","Shop 15","Wallsend Plaza","24 Kokera Street","Wallsend","2287","09:00-17:00 Monday to Friday, excluding Public Holidays","YES","1.5","http://www.medicareaustralia.gov.au/public/claims/offices.jsp","151.66659600","-32.90373900","83","100000",""
"MO","NSW","Charlestown","Shop 122","Charlestown Square","Cnr Smart and Pearson Streets","Charlestown","2290","09:00-17:00 Monday to Friday, 9:00-18:00 Thursdays, 09:00-12:30 Saturdays, excluding Public Holidays","YES","1.5","http://www.medicareaustralia.gov.au/public/claims/offices.jsp","151.69514400","-32.96340600","22","100000",""
"MO","NSW","Kotara","Shop 1012a, Level 1","Westfield Kotara","Cnr Park Ave & Northcott Drive","Kotara","2289","09:00-17:00 Monday to Friday, 09:00-12:30 Saturdays, excluding Public Holidays","YES","1.5","http://www.medicareaustralia.gov.au/public/claims/offices.jsp","151.71115900","-32.94205200","42","999",""
"MO","NSW","Raymond Terrace","Shop 21","Centro Raymond Terrace","Cnr Sturgeon and Glenelg Streets","Raymond Terrace","2324","09:00-17:00 Monday to Friday, excluding Public Holidays","YES","1.5","http://www.medicareaustralia.gov.au/public/claims/offices.jsp","151.74191703","-32.76341280","68","999",""
"MO","NSW","Newcastle","","Hunter Street Mall","159 Hunter Street","Newcastle","2300","09:00-17:00 Monday to Friday, excluding Public Holidays","YES","1.5","http://www.medicareaustralia.gov.au/public/claims/offices.jsp","151.77972400","-32.92677500","57","100000",""
"MO","Qld","Kingaroy","Shop 26","Kingaroy Shopping World","Cnr Alford & Youngman Streets","Kingaroy","4610","09:00-16:30  Monday to Friday, excluding Public Holidays","YES","1.5","http://www.medicareaustralia.gov.au/public/claims/offices.jsp","151.83611700","-26.54060000","115","100000",""
"MO","Qld","Toowoomba - Clifford Gardens","Shop 87","Clifford Gardens Shopping Ctr","Cnr James Street & Anzac Ave","Toowoomba","4350","09:00-17:00 Monday to Friday, excluding Public Holidays","YES","1.5","http://www.medicareaustralia.gov.au/public/claims/offices.jsp","151.93238350","-27.56454178","104","999",""
"MO","Qld","Toowoomba","Shop 56","Grand Central Shopping Centre","Cnr Clifford And Margaret Streets","Toowoomba","4350","09:00-17:00 Monday to Friday, 9:00-19:00 Thursdays, 09:00-12:30 Saturdays, excluding Public Holidays","YES","1.5","http://www.medicareaustralia.gov.au/public/claims/offices.jsp","151.94753300","-27.56020300","129","100000",""
"MO","QLD","Warwick","","","37 Albion Street","Warwick","4370","08:30-16:30 Monday to Friday, excluding Public Holidays","YES","1.5","http://www.medicareaustralia.gov.au/public/claims/offices.jsp","152.03373500","-28.22317600","131","50",""
"MO","QLD","Bundaberg","Shop 45","Hinkler Central","16 Maryborough Street","Bundaberg","4670","09:00-17:00 Monday to Friday, 09:00-12:30 Saturdays, excluding Public Holidays","YES","1.5","http://www.medicareaustralia.gov.au/public/claims/offices.jsp","152.34817600","-24.87126900","96","10",""
"MO","NSW","Taree","Shop 1","","184-188 Victoria Street","Taree","2430","08:30-17:00 Monday to Friday, 09:00-12:30 Saturdays, excluding Public Holidays","YES","1.5","http://www.medicareaustralia.gov.au/public/claims/offices.jsp","152.46107100","-31.91355500","76","10",""
"MO","NSW","Tuncurry","Shop 8,","Bridgepoint Building,","7-9 Manning Street","Tuncurry","2428","09:00-17:00 Monday to Friday, excluding Public Holidays","YES","1.5","http://www.medicareaustralia.gov.au/public/claims/offices.jsp","152.50033800","-32.17645300","258","100000",""
"MO","QLD","Gympie","Shop 13","Cullinanes Centre","104 Mary Street","Gympie","4570","09:00-16:30  Monday to Friday, 09:00-12:30 Saturdays, excluding Public Holidays","YES","1.5","http://www.medicareaustralia.gov.au/public/claims/offices.jsp","152.66258400","-26.19029600","108","100000",""
"MO","Qld","Maryborough","Shop 3","Station Square Shopping Centre","142 Lennox Street","Maryborough","4650","09:00-16:30  Monday to Friday, excluding Public Holidays","YES","1.5","http://www.medicareaustralia.gov.au/public/claims/offices.jsp","152.69953800","-25.53914700","118","100000",""
"MO","Qld","Ipswich","Shop BD7","Ipswich Riverlink Shopping Centre","Cnr Pine Street and The Terrace","Ipswich","4305","09:00-17:00 Monday to Friday, 09:00-12:30 Saturdays, excluding Public Holidays","YES","1.5","http://www.medicareaustralia.gov.au/public/claims/offices.jsp","152.76117100","-27.60897000","113","999",""
"MO","Qld","Pialba - Hervey Bay","Shop 44","Pialba Place Shopping Centre","30 Main Street","Pialba","4655","09:00-16:30  Monday to Friday, excluding Public Holidays","YES","1.5","http://www.medicareaustralia.gov.au/public/claims/offices.jsp","152.83770443","-25.28863989","109","999",""
"MO","NSW","Kempsey","Shop 3B","Kempsey Mall","15-27 Belgrave Street","Kempsey","2440","09:00-16:30  Monday to Friday, excluding Public Holidays","YES","1.5","http://www.medicareaustralia.gov.au/public/claims/offices.jsp","152.83981500","-31.08031700","41","100000",""
"MO","NSW","Port Macquarie","Shop 3","Settlement City Shopping Centre","Cnr Park & Bay Streets","Port Macquarie","2444","08:30-17:00 Monday to Friday, 09:00-12:30 Saturdays, excluding Public Holidays","YES","1.5","http://www.medicareaustralia.gov.au/public/claims/offices.jsp","152.89695500","-31.42735900","66","10",""
"MO","NSW","Macksville","","","9 Cooper Street","Macksville","2447","09:00-16:30  Monday to Friday, excluding Public Holidays","YES","1.5","http://www.medicareaustralia.gov.au/public/claims/offices.jsp","152.92111500","-30.70718200","47","100001",""
"MO","NSW","Grafton","","","4-8 King Street","Grafton","2460","08:30-16:30 Monday to Friday, excluding Public Holidays","YES","1.5","http://www.medicareaustralia.gov.au/public/claims/offices.jsp","152.93269000","-29.68993500","34","10",""
"MO","Qld","Mount Ommaney","Shop 78","Mount Ommaney Centre","171 Dandenong Rd","Mount Ommaney","4074","09:00-17:00 Monday to Friday, 09:00-12:30 Saturdays, excluding Public Holidays","YES","2","http://www.medicareaustralia.gov.au/public/claims/offices.jsp","152.93864400","-27.54952400","229","100000",""
"MO","QLD","Morayfield","Shop 85","Morayfield Shopping Centre","165-171 Morayfield Road","Morayfield","4506","09:00-17:00 Monday to Friday, 09:00-12:30 Saturdays, excluding Public Holidays","YES","1.5","http://www.medicareaustralia.gov.au/public/claims/offices.jsp","152.94826000","-27.10288400","119","10",""
"MO","QLD","Nambour","","","Cnr Maud and Currie Streets","Nambour","4560","08:30-16:30  Monday to Friday, 09:00-12:30 Saturdays, excluding Public Holidays","YES","1.5","http://www.medicareaustralia.gov.au/public/claims/offices.jsp","152.95957100","-26.62840600","121","10",""
"MO","QLD","Indooroopilly","Shop 1028","Indooroopilly Shopping Centre","322 Moggill Road","Indooroopilly","4068","09:00-17:00 Monday to Friday, 9:00-19:00 Thursdays, 09:00-12:30 Saturdays, excluding Public Holidays","YES","1.5","http://www.medicareaustralia.gov.au/public/claims/offices.jsp","152.97197600","-27.49776100","110","100000",""
"MO","Qld","Mitchelton - Brookside","Shop 114A","Brookside Shopping Centre","159 Osborne Road","Mitchelton","4053","09:00-17:00 Monday to Friday, 9:00-19:00 Thursdays, 09:00-12:30 Saturdays, excluding Public Holidays","YES","1.5","http://www.medicareaustralia.gov.au/public/claims/offices.jsp","152.97806900","-27.40756600","95","100000",""
"MO","QLD","Strathpine","Shop 145","Westfield Strathpine","295 Gympie Road","Strathpine","4500","09:00-17:00 Monday to Friday, 9:00-19:00 Thursdays, 09:00-12:30 Saturdays, excluding Public Holidays","YES","1.5","http://www.medicareaustralia.gov.au/public/claims/offices.jsp","152.99017800","-27.30740100","127","10",""
"MO","Qld","Brisbane - Queen Street","Shop 225, Level 2,","Myer Centre, Queen Street Mall","91 Queen Street","Brisbane","4000","08:30-17:00  Monday to Friday, excluding Public Holidays","YES","1.5","http://www.medicareaustralia.gov.au/public/claims/offices.jsp","153.02482200","-27.47049600","132","999",""
"MO","QLD","Chermside","Shop 87","Westfield Chermside","Cnr Gympie & Hamilton Road","Chermside","4032","09:00-17:00 Monday to Friday, 09:00-19:00 Thursdays, 09:00-12:30 Saturdays, excluding Public Holidays","YES","1.5","http://www.medicareaustralia.gov.au/public/claims/offices.jsp","153.03099900","-27.38590500","101","10","YES"
"MO","NSW","Casino","","","46 Hickey Street","Casino","2470","08:30 -16:30  Monday to Friday, excluding Public Holidays","YES","1.5","http://www.medicareaustralia.gov.au/public/claims/offices.jsp","153.05054400","-28.86350400","19","10",""
"MO","QLD","Toombul","Shop 80","Centro Toombul","1015 Sandgate Road","Toombul","4012","09:00-17:00 Monday to Friday, 09:00-12:30 Saturdays, excluding Public Holidays","YES","1.5","http://www.medicareaustralia.gov.au/public/claims/offices.jsp","153.05996397","-27.40842920","128","999",""
"MO","QLD","Upper Mount Gravatt - Garden City","Shop 1023","Garden City Shopping Centre","Cnr Kessels & Logan Road","Upper Mount Gravatt","4122","09:00-17:00 Monday to Friday, 9:00-19:00 Thursdays, 09:00-12:30 Saturdays, excluding Public Holidays","YES","1.5","http://www.medicareaustralia.gov.au/public/claims/offices.jsp","153.08108400","-27.56003500","106","10",""
"MO","QLD","Kippa-ring","Shop A3","Peninsula Fair Shopping City","272 Anzac Avenue","Kippa-Ring","4021","09:00-17:00 Monday to Friday, 09:00-12:30 Saturdays, excluding Public Holidays","YES","1.5","http://www.medicareaustralia.gov.au/public/claims/offices.jsp","153.08777300","-27.22671800","116","10","YES"
"MO","Qld","Maroochydore","Shop 323, level 1,","Sunshine Plaza,","Horton Parade","Maroochydore","4558","09:00-17:00 Monday to Friday, 9:00-19:00 Thursdays, 09:00-12:30 Saturdays, excluding Public Holidays","YES","1.5","http://www.medicareaustralia.gov.au/public/claims/offices.jsp","153.09066400","-26.65423300","254","200002",""
"MO","QLD","Carindale","Shop 1027,Ground Floor","Westfield Carindale","1151 Creek Road","Carindale","4152","09:00-17:00 Monday to Friday, 9:00-19:00 Thursdays, 09:00-12:30 Saturdays, excluding Public Holidays","YES","1.5","http://www.medicareaustralia.gov.au/public/claims/offices.jsp","153.10093700","-27.49875500","100","999",""
"MO","Qld","Woodridge","Shop 3, Ground Floor","Logan Central Plaza","38 Wembley Road","Woodridge","4114","09:00-17:00 Monday to Friday, excluding Public Holidays","YES","1.5","http://www.medicareaustralia.gov.au/public/claims/offices.jsp","153.11354800","-27.64292300","133","101000",""
"MO","QLD","Caloundra","Shop 19","Stockland Caloundra","47 Bowman Road","Caloundra","4551","09:00-17:00 Monday to Friday, excluding Public Holidays","YES","1.5","http://www.medicareaustralia.gov.au/public/claims/offices.jsp","153.12595400","-26.80306200","98","100000",""
"MO","QLD","Buddina - Kawana Waters","Shop 416","Kawana Waters Shoppingworld","119 Point Cartwright Drive","Buddina","4575","09:00-17:00 Monday to Friday, 09:00-12:30 Saturdays, excluding Public Holidays","YES","1.5","http://www.medicareaustralia.gov.au/public/claims/offices.jsp","153.13065300","-26.70094400","114","100000",""
"MO","NSW","Coffs Harbour","Shop 83","Park Beach Plaza","253 Park Beach Road","Coffs Harbour","2450","09:00-17:00 Monday to Friday, 9:00-18:00 Thursday, 09:00-12:30 Saturdays, excluding Public Holidays","YES","1.5","http://www.medicareaustralia.gov.au/public/claims/offices.jsp","153.13302100","-30.28573500","24","50",""
"MO","QLD","Wynnum","","","89 Tingal Road (Cnr Clara Street)","Wynnum","4178","08:30-16:30 Monday to Friday, excluding Public Holidays","YES","1.5","http://www.medicareaustralia.gov.au/public/claims/offices.jsp","153.17233100","-27.44671000","255","10",""
"MO","QLD","Capalaba","Shop 95","Capalaba Park Shopping Centre","Cnr Mt Cotton & Redland Bay Road","Capalaba","4157","09:00-17:00 Monday to Friday, 09:00-12:30 Saturdays, excluding Public Holidays","YES","1.5","http://www.medicareaustralia.gov.au/public/claims/offices.jsp","153.19009900","-27.52153700","99","999",""
"MO","Qld","Beenleigh","Shop 6A","Beenleigh Marketplace","George Street","Beenleigh","4207","09:00-17:00 Monday to Friday, excluding Public Holidays","YES","1.5","http://www.medicareaustralia.gov.au/public/claims/offices.jsp","153.20661600","-27.71631600","93","999",""
"MO","QLD","Cleveland","Shop 76","Stockland Cleveland North Mall","90 Middle Street","Cleveland","4163","09:00-17:00 Monday to Friday, excluding Public Holidays","YES","1.5","http://www.medicareaustralia.gov.au/public/claims/offices.jsp","153.26844300","-27.52606300","103","100000",""
"MO","NSW","Lismore","Shop 78,","Lismore Shopping Square,","Cnr Brewster St & Uralba St","Lismore","2480","09:00-17:00 Monday to Friday, 09:00-12:30 Saturdays, excluding Public Holidays","YES","1.5","http://www.medicareaustralia.gov.au/public/claims/offices.jsp","153.28553500","-28.80950600","44","999",""
"MO","Qld","Ashmore","Shop 7","Ashmore City Shopping Centre","Cnr Nerang & Currumburra Rds","Ashmore","4214","09:00-17:00 Monday to Friday, 09:00-12:30 Saturdays, excluding Public Holidays","YES","1.5","http://www.medicareaustralia.gov.au/public/claims/offices.jsp","153.38084400","-27.97712900","90","999",""
"MO","QLD","Southport","Shop 1047","Australia Fair Shopping Centre","42 Marine Parade","Southport","4215","09:00-17:00 Monday to Friday, 09:00-12:30 Saturdays, excluding Public Holidays","YES","1.5","http://www.medicareaustralia.gov.au/public/claims/offices.jsp","153.41704000","-27.96939900","126","10",""
"MO","QLD","Broadbeach - Pacific Fair","Shop 301a","Pacific Fair Shopping Centre","Hooker Boulevarde","Broadbeach","4218","09:00-17:00 Monday to Friday, 9:00-18:00 Thursdays, 09:00-12:30 Saturdays, excluding Public Holidays","YES","1.5","http://www.medicareaustralia.gov.au/public/claims/offices.jsp","153.42838800","-28.03525200","123","999",""
"MO","Qld","Elanora","Shop 26,","The Pines Shopping Centre,","313 K P Mcgrath Drive","Elanora","4221","09:00-17:00 Monday to Friday, excluding Public Holidays","YES","1.5","http://www.medicareaustralia.gov.au/public/claims/offices.jsp","153.46904200","-28.13551000","248","200000",""
"MO","NSW","Tweed Heads","Shop 23","Tweed City Shopping Centre","54 Minjungbal Drive","Tweed Heads South","2486","09:00-17:00 Monday to Friday, 09:00-12:30 Saturdays, excluding Public Holidays","YES","1.5","http://www.medicareaustralia.gov.au/public/claims/offices.jsp","153.54403800","-28.19998000","88","100000",""
"MO","NSW","Ballina","","","117-121 Tamar Street","Ballina","2478","08:30-16:30 Monday to Friday, 09:00-12:30 Saturdays, excluding Public Holidays","YES","1.5","http://www.medicareaustralia.gov.au/public/claims/offices.jsp","153.55716600","-28.86765500","7","10",""
"MO","NSW","Sutherland - Limited Services - EFT only (Centrelink)","","","36 Eton Street","Sutherland","2232","08:00-17:00 Monday to Friday, excluding Public Holidays","","1.5","http://www.medicareaustralia.gov.au/public/claims/offices.jsp","151.05895200","-34.03188600","259","0",""
"MO","VIC","Hastings - Limited Services - EFT Only (Centrelink)","","","125 High Street","Hastings","3915","08:15-16:45 Monday to Friday, excluding Public Holidays","","1.5","http://www.medicareaustralia.gov.au/public/claims/offices.jsp","145.18667600","-38.30771900","260","10",""
"MO","QLD","Earlville - Limited Services - EFT Only (Centrelink)","","","480 Mulgrave Road","Earlville","4870","08:30-17:00 Monday to Friday, excluding Public Holidays","","1.5","http://www.medicareaustralia.gov.au/public/claims/offices.jsp","145.74035100","-16.94132000","261","999",""
"MO","WA","Broome - Limited Services - EFT Only (Centrelink)","Centrelink Building","","14 Napier Terrace","Broome","6725","07:45-16:45 Monday to Friday, excluding Public Holidays","YES","1.5","http://www.medicareaustralia.gov.au/public/claims/offices.jsp","122.23991200","-17.95477300","262","30",""
"MO","TAS","Launceston - Limited Services - EFT Only (Centrelink)","","","8 Boland Street","Launceston","7250","08:30 - 17:00 Monday to Friday, excluding Public Holidays","YES","1.5","http://www.medicareaustralia.gov.au/public/claims/offices.jsp","147.14148063","-41.43081154","263","999",""
"MO","QLD","Emerald - EFT only","","Widebay Capricorn House","50 Borilla Street","Emerald","4720","08:30-16:30 Monday to Friday, excluding Public Holidays","","1.5","http://www.medicareaustralia.gov.au/public/claims/offices.jsp","148.16225300","-23.52479200","266","10",""
"MO","SA","Modbury","Shop 216","Westfield Tea Tree Plaza","976 North East Road","Modbury","5092","09:00-17:00 Monday to Friday, 9:00-19:00 Thursdays, 09:00-12:30 Saturdays, excluding Public Holidays","YES","1.5","http://www.medicareaustralia.gov.au/public/claims/offices.jsp","138.68569100","-34.83185100","144","100001","YES"
"MO","SA","Gawler","Shop 4","","103-107 Murray Street","Gawler","5118","09:00-17:00 Monday to Friday, 09:00-12:30 Saturdays, excluding Public Holidays","YES","1.5","http://www.medicareaustralia.gov.au/public/claims/offices.jsp","138.74924700","-34.59867600","142","10",""
"MO","QLD","Mt Isa","Shop 7b","Isa Square","29 Simpson Street","Mount Isa","4825","09:00-16:30  Monday to Friday, excluding Public Holidays","NO","1.5","http://www.medicareaustralia.gov.au/public/claims/offices.jsp","139.49439900","-20.72559100","120","100000",""
"MO","SA","Berri","","","22 Vaughan Terrace","Berri","5343","09:00-16:30  Monday to Friday, excluding Public Holidays","YES","1.5","http://www.medicareaustralia.gov.au/public/claims/offices.jsp","140.60116200","-34.28418100","138","100000",""
"MO","SA","Mt Gambier","Shop  1 & 2","Savings & Loan Plaza","7-3 Compton Street","Mt Gambier","5290","09:00-16:30  Monday to Friday, excluding Public Holidays","YES","1.5","http://www.medicareaustralia.gov.au/public/claims/offices.jsp","140.78342100","-37.83107100","145","10",""
"MO","NSW","Broken Hill","Shop 9","Exchange Arcade","324 Argent Street","Broken Hill","2880","09:00-16:30  Monday to Friday, excluding Public Holidays","YES","1.5","http://www.medicareaustralia.gov.au/public/claims/offices.jsp","141.46569000","-31.95813700","134","100000",""
"MO","VIC","Portland","Shop T2","","Fredericks Court","Portland","3305","09:00-17:00 Monday to Friday, excluding Public Holidays","YES","1.5","http://www.medicareaustralia.gov.au/public/claims/offices.jsp","141.60158205","-38.34492219","196","999",""
"MO","VIC","Hamilton","","","184 Gray Street","Hamilton","3300","09:00-17:00 Monday to Friday, excluding Public Holidays","YES","1.5","http://www.medicareaustralia.gov.au/public/claims/offices.jsp","142.02578500","-37.74252000","185","100000",""
"MO","VIC","Mildura","","","129 Eighth Street","Mildura","3500","09:00-17:00  Monday to Friday, 09:00-12:30 Saturdays, excluding Public Holidays","YES","1.5","http://www.medicareaustralia.gov.au/public/claims/offices.jsp","142.16222500","-34.18483600","190","100000",""
"MO","VIC","Horsham","","","Cnr Darlot & McLachlan Streets","Horsham","3400","09:00-17:00 Monday to Friday, excluding Public Holidays","YES","1.5","http://www.medicareaustralia.gov.au/public/claims/offices.jsp","142.19711500","-36.71312400","187","10",""
"MO","VIC","Warrnambool","","","109 Lava Street","Warrnambool","3280","09:00-17:00 Monday to Friday, 09:00-12:30 Saturdays, excluding Public Holidays","YES","1.5","http://www.medicareaustralia.gov.au/public/claims/offices.jsp","142.48564600","-38.38220300","206","10",""
"MO","VIC","Ararat","","","135 Barkly Street","Ararat","3377","09:00-17:00 Monday to Friday, excluding Public Holidays","YES","1.5","http://www.medicareaustralia.gov.au/public/claims/offices.jsp","142.92980600","-37.28385000","160","100000",""
"MO","VIC","Swan Hill","","","270 Campbell Street","Swan Hill","3585","09:00-17:00 Monday to Friday, excluding Public Holidays","YES","1.5","http://www.medicareaustralia.gov.au/public/claims/offices.jsp","143.56208100","-35.34552900","202","100000",""
"MO","VIC","Colac","","","55 Dennis Street","Colac","3250","09:00-17:00 Monday to Friday, excluding Public Holidays","YES","1.5","http://www.medicareaustralia.gov.au/public/claims/offices.jsp","143.58852144","-38.33825147","173","999",""
"MO","VIC","Ballarat","","","11a Armstrong Street North","Ballarat","3350","09:00-17:00 Monday to Friday, 09:00-12:30 Saturdays, excluding Public Holidays","YES","1.5","http://www.medicareaustralia.gov.au/public/claims/offices.jsp","143.85633600","-37.56078800","162","999",""
"MO","VIC","Bendigo","","","56 Queen Street","Bendigo","3550","09:00-17:00 Monday to Friday, 09:00-12:30 Saturdays, excluding Public Holidays","YES","1.5","http://www.medicareaustralia.gov.au/public/claims/offices.jsp","144.27935300","-36.76190900","163","100000",""
"MO","VIC","Waurn Ponds","Shop 702","Waurn Ponds Shopping Centre","Cnr Pioneer Road & Princes Highway","Waurn Ponds","3221","09:00-17:00 Monday to Friday, excluding Public Holidays","YES","1.5","http://www.medicareaustralia.gov.au/public/claims/offices.jsp","144.27858600","-38.20780200","207","200002",""
"MO","VIC","Corio","Shop 12","Corio Shopping Centre","Bacchus Marsh Road","Corio","3214","09:00-17:00 Monday to Friday, excluding Public Holidays","YES","1.5","http://www.medicareaustralia.gov.au/public/claims/offices.jsp","144.35864500","-38.06590700","175","200002",""
"MO","VIC","Prahran","Shop M53, Mezzanine level","Pran Central","Cnr Chapel Street and Commercial Road","Prahran","3181","09:00-17:00 Monday to Friday, 09:00-12:30 Saturdays, excluding Public Holidays","YES","1.5","http://www.medicareaustralia.gov.au/public/claims/offices.jsp","144.99386300","-37.84703600","197","999",""
"MO","VIC","Northcote","Shop 22/23","Northcote Central Shopping Ctr","17 Separation Street","Northcote","3070","09:00-17:00 Monday to Friday, excluding Public Holidays","YES","1.5","http://www.medicareaustralia.gov.au/public/claims/offices.jsp","145.00014700","-37.76900300","194","999",""
"MO","VIC","Elsternwick","","","384 Glen Huntly Road","Elsternwick","3185","09:00-17:00 Monday to Friday, 09:00-12:30 Saturdays, excluding Public Holidays","YES","1.5","http://www.medicareaustralia.gov.au/public/claims/offices.jsp","145.00420400","-37.88481400","179","100000",""
"MO","VIC","Preston - Northland","Shop F07,","Northland Shopping Centre,","50 Murray Road","Preston","3072","09:00-17:00 Monday to Friday, 09:00-12:30 Saturdays, excluding Public Holidays","YES","1.5","http://www.medicareaustralia.gov.au/public/claims/offices.jsp","145.02524100","-37.74026900","195","10",""
"MO","VIC","Bentleigh","","","440 Centre Road","Bentleigh","3204","09:00-17:00 Monday to Friday, excluding Public Holidays","YES","1.5","http://www.medicareaustralia.gov.au/public/claims/offices.jsp","145.03854700","-37.91851100","164","100000","YES"
"MO","VIC","Mornington","Shop 105","Village Shopping Centre","Main Street","Mornington","3931","09:00-17:00 Monday to Friday, 09:00-12:30 Saturdays, excluding Public Holidays","YES","1.5","http://www.medicareaustralia.gov.au/public/claims/offices.jsp","145.04078500","-38.22310100","192","200002",""
"MO","VIC","Cheltenham - Southland","Shop 3044, Level 3","Southland Shoppingtown","1239 Nepean Highway","Cheltenham","3192","09:00-17:00 Monday to Friday, 9:00-19:00 Thursday, 09:00-12:30 Saturday, excluding Public Holidays","YES","1.5","http://www.medicareaustralia.gov.au/public/claims/offices.jsp","145.05459500","-37.96098700","201","100001",""
"MO","VIC","Camberwell","","","527 Riversdale Road","Camberwell","3124","09:00-17:00 Monday to Friday, 09:00-12:30 Saturdays, excluding Public Holidays,","YES","1.5","http://www.medicareaustralia.gov.au/public/claims/offices.jsp","145.05727300","-37.83134500","168","100000","YES"
"MO","VIC","Chadstone","Shop B158, Lower Level","Chadstone Shopping Centre","1341 Dandenong Road","Chadstone","3148","09:00-17:00 Monday to Friday, 9:00-19:00 Thursdays, 09:00-12:30 Saturdays, excluding Public Holidays","YES","1.5","http://www.medicareaustralia.gov.au/public/claims/offices.jsp","145.08131064","-37.88635881","170","999",""
"MO","VIC","Greensborough","Shop 110-111, Level 1","Greensborough Plaza","25 Main Street","Greensborough","3088","09:00-17:00 Monday to Friday, 9:00-19:00 Thursdays, 09:00-12:30 Saturdays, excluding Public Holidays","YES","1.5","http://www.medicareaustralia.gov.au/public/claims/offices.jsp","145.10328200","-37.70399800","184","10",""
"MO","VIC","Box Hill","Shop South 15","Centro Box Hill","Main Street","Box Hill","3128","09:00-17:00 Monday to Friday, excluding Public Holidays","YES","1.5","http://www.medicareaustralia.gov.au/public/claims/offices.jsp","145.12254700","-37.81899900","166","999",""
"MO","VIC","Frankston","Shop G001Q","Bayside Shopping Centre","Olsen Street","Frankston","3199","09:00-17:00 Monday to Friday, 9:00-19:00 Thursdays, 09:00-12:30 Saturdays, excluding Public Holidays","YES","1.5","http://www.medicareaustralia.gov.au/public/claims/offices.jsp","145.12370804","-38.14062238","181","999",""
"MO","VIC","Doncaster","Suite 1001","Doncaster Shoppingtown","Williamsons Road","Doncaster","3108","09:00-17:00 Monday to Friday, 09:00-12:30 Saturdays, excluding Public Holidays","YES","1.5","http://www.medicareaustralia.gov.au/public/claims/offices.jsp","145.12579100","-37.77553500","177","200002",""
"MO","VIC","Waverley Gardens","Shop 58","Waverley Gardens Shopping Ctr","Police Road","Mulgrave","3170","09:00-17:00 Monday to Friday, excluding Public Holidays","YES","1.5","http://www.medicareaustralia.gov.au/public/claims/offices.jsp","145.18464600","-37.93664200","208","200002",""
"MO","VIC","Glen Waverley","Shop 5, Level 1","The Glen Shopping Centre","235 Springvale Road","Glen Waverley","3150","09:00-17:00 Monday to Friday, 9:00-18:00 Thursdays, 09:00-12:30 Saturdays, excluding Public Holidays","YES","1.5","http://www.medicareaustralia.gov.au/public/claims/offices.jsp","145.16630400","-37.87668100","183","100000","YES"
"MO","VIC","Forest Hill","Shop T142","Forest Hill Chase Shopping Ctr","Canterbury Road","Forest Hill","3131","09:00-17:00 Monday to Friday, 09:00-12:30 Saturdays, excluding Public Holidays","YES","1.5","http://www.medicareaustralia.gov.au/public/claims/offices.jsp","145.16532098","-37.83470177","180","999",""
"MO","VIC","Dandenong","Shop 115","Dandenong Palm Plaza","Mccrae Street","Dandenong","3175","09:00-17:00 Monday to Friday, 9:00-19:00 Thursdays and 09:00-12:30 Saturdays, excluding Public Holidays","YES","1.5","http://www.medicareaustralia.gov.au/public/claims/offices.jsp","145.21956000","-37.99022500","176","200002",""
"MO","VIC","Ringwood","Shop L108","Eastland Shopping Centre","171 Maroondah Highway","Ringwood","3134","09:00-17:00 Monday to Friday, 9:00-19:00 Thursdays, 09:00-12:30 Saturdays, excluding Public Holidays","YES","1.5","http://www.medicareaustralia.gov.au/public/claims/offices.jsp","145.22952300","-37.81514800","198","10",""
"MO","VIC","Wantirna South - Knox City","Shop 1091","Knox City Shopping Centre","Cnr Burwood Hwy & Stud Rd","Wantirna South","3152","09:00-17:00 Monday to Friday, 9:00-19:00 Thursdays, 09:00-12:30 Saturdays, excluding Public Holidays","YES","1.5","http://www.medicareaustralia.gov.au/public/claims/offices.jsp","145.23521100","-37.86897900","188","100000",""
"MO","VIC","Cranbourne","Shop 61,","Centro Cranbourne Shopping Centre,","High Street","Cranbourne","3977","09:00-17:00 Monday to Friday, excluding Public Holidays","YES","1.5","http://www.medicareaustralia.gov.au/public/claims/offices.jsp","145.28241500","-38.10175200","249","200002",""
"MO","VIC","Narre Warren - Fountain Gate","1158","Westfield Fountain Gate Shopping Centre","352 Princes Highway","Narre Warren","3805","09:00-17:00 Monday to Friday, 9:00-19:00 Thursdays, 09:00-12:30 Saturdays, excluding Public Holidays","YES","1.5","http://www.medicareaustralia.gov.au/public/claims/offices.jsp","145.30288400","-38.02344700","242","100000",""
"MO","VIC","Chirnside Park","Shop 713","Chirnside Park Shopping Centre","Maroondah Highway","Chirnside Park","3116","09:00-17:00 Monday to Friday, 9:00-18:00 Thursdays, 09:00-12:30 Saturdays, excluding Public Holidays","YES","1.5","http://www.medicareaustralia.gov.au/public/claims/offices.jsp","145.32829700","-37.76039400","171","200002",""
"MO","VIC","Shepparton","Shop 3","City Walk Arcade","306 Wyndham Street","Shepparton","3630","09:00-17:00 Monday to Friday, 09:00-12:30 Saturdays, excluding Public Holidays","YES","1.5","http://www.medicareaustralia.gov.au/public/claims/offices.jsp","145.40001500","-36.37983000","200","999",""
"MO","Qld","Atherton","","","30 Mabel Street","Atherton","4883","09:00-16:30  Monday to Friday, excluding Public Holidays","YES","1.5","http://www.medicareaustralia.gov.au/public/claims/offices.jsp","145.47792000","-17.26503400","91","100000",""
"MO","QLD","Smithfield","Shop 77","Smithfield Shopping Centre","Cnr Kennedy & Captain Cook Highways","Smithfield","4878","09:00-17:00 Monday to Friday, excluding Public Holidays","YES","1.5","http://www.medicareaustralia.gov.au/public/claims/offices.jsp","145.69201716","-16.83848737","125","999",""
"MO","QLD","Cairns","Shop QL 15-19","Cairns Central","Cnr McLeod & Spence Streets","Cairns","4870","09:00-17:00 Monday to Friday, 9:00-18:00 Thursdays, 09:00-12:30 Saturdays, excluding Public Holidays","YES","1.5","http://www.medicareaustralia.gov.au/public/claims/offices.jsp","145.77417700","-16.92622600","97","10",""
"MO","TAS","Burnie","Shop 2","Columnar Shopping Centre","22 Wilmot Street","Burnie","7320","09:00-17:00 Monday to Friday, 09:00-12:30 Saturdays, excluding Public Holidays","YES","1.5","http://www.medicareaustralia.gov.au/public/claims/offices.jsp","145.90766200","-41.05109600","151","10",""
"MO","VIC","Warragul","","","42 Queen Street","Warragul","3820","08:30-16:30 Monday to Friday, excluding Public Holidays","YES","1.5","http://www.medicareaustralia.gov.au/public/claims/offices.jsp","145.92887900","-38.16325300","205","10",""
"MO","Qld","Innisfail","Shop 30","The Central Shopping Centre","20 Edith Street","Innisfail","4860","09:00-16:30  Monday to Friday, excluding Public Holidays","YES","1.5","http://www.medicareaustralia.gov.au/public/claims/offices.jsp","146.03131500","-17.52406100","112","100000",""
"MO","NSW","Griffith","","","352-354 Banna Avenue","Griffith","2680","09:00-16:30  Monday to Friday, excluding Public Holidays","YES","1.5","http://www.medicareaustralia.gov.au/public/claims/offices.jsp","146.04425100","-34.28791000","35","10",""
"MO","QLD","Ingham","Shop 9/10","Hinchinbrook Central","86-92 Herbert Street","Ingham","4850","09:00-16:30  Monday to Friday, excluding Public Holidays","YES","1.5","http://www.medicareaustralia.gov.au/public/claims/offices.jsp","146.16051700","-18.64793200","111","10",""
"MO","VIC","Wangaratta","","","28-30 Murphy Street","Wangaratta","3677","09:00-17:00 Monday to Friday, 09:00-12:30 Saturdays, excluding Public Holidays","YES","1.5","http://www.medicareaustralia.gov.au/public/claims/offices.jsp","146.32550200","-36.35637800","204","100000",""
"MO","TAS","Devonport","","","18 Rooke Street","Devonport","7310","09:00-17:00 Monday to Friday, excluding Public Holidays","YES","1.5","http://www.medicareaustralia.gov.au/public/claims/offices.jsp","146.36046800","-41.18104400","152","100000",""
"MO","VIC","Morwell","","","246 Commercial Road","Morwell","3840","09:00-17:00 Monday to Friday, excluding Public Holidays","YES","1.5","http://www.medicareaustralia.gov.au/public/claims/offices.jsp","146.39951900","-38.23804500","193","100000",""
"MO","VIC","Traralgon","Shop 1","","81 Hotham Street","Traralgon","3844","09:00-17:00 Monday to Friday, 09:00-12:30 Saturdays, excluding Public Holidays","YES","1.5","http://www.medicareaustralia.gov.au/public/claims/offices.jsp","146.53673600","-38.19738500","203","100000",""
"MO","QLD","Aitkenvale","6s","Sunvale Shopping Centre","61-63 Elizabeth Street","Aitkenvale","4814","09:00-17:00 Monday to Friday, 9:00-18:00 Thursdays, 09:00-12:30 Saturdays, excluding Public Holidays","YES","1.5","http://www.medicareaustralia.gov.au/public/claims/offices.jsp","146.76472100","-19.29883800","89","10",""
"MO","QLD","Townsville","Shop 1","Northtown On The Mall","Flinders Street","Townsville","4810","09:00-16:30  Monday to Friday, excluding Public Holidays","YES","1.5","http://www.medicareaustralia.gov.au/public/claims/offices.jsp","146.81762870","-19.25945453","130","999",""
"MO","VIC","Wodonga","Shop 4","","123-125 High Street","Wodonga","3690","09:00-17:00 Monday to Friday, excluding Public Holidays","YES","1.5","http://www.medicareaustralia.gov.au/public/claims/offices.jsp","146.88807600","-36.12122100","210","10",""
"MO","NSW","Albury","","","489 Dean Street","Albury","2640","09:00-17:00  Monday to Friday, 09:00-12:30 Saturdays, excluding Public Holidays","YES","1.5","http://www.medicareaustralia.gov.au/public/claims/offices.jsp","146.91907000","-36.08119300","5","100000",""
"MO","VIC","Sale","","","301 Raymond Street","Sale","3850","09:00-17:00 Monday to Friday, excluding Public Holidays","YES","1.5","http://www.medicareaustralia.gov.au/public/claims/offices.jsp","147.06544900","-38.10691300","199","100000",""
"MO","TAS","Launceston","","","90 St John Street","Launceston","7250","08:30-17:00  Monday to Friday, 09:00-12:30 Saturdays, excluding Public Holidays","YES","1.5","http://www.medicareaustralia.gov.au/public/claims/offices.jsp","147.13944500","-41.43824000","157","100000",""
"MO","TAS","Glenorchy","Shop 52","Northgate Shopping Centre","387 Main Road","Glenorchy","7010","09:00-17:00 Monday to Fridays, 09:00-12:30 Saturdays, excluding Public Holidays","YES","1.5","http://www.medicareaustralia.gov.au/public/claims/offices.jsp","147.27380500","-42.83272300","154","100000",""
"MO","TAS","Kingston","Shop 52/53","Channel Court Shopping Centre","Channel Highway","Kingston","7050","09:00-17:00 Monday to Friday, excluding Public Holidays","YES","1.5","http://www.medicareaustralia.gov.au/public/claims/offices.jsp","147.30870300","-42.97570900","156","999",""
"MO","TAS","Hobart","Shop 7","Trafalgar Centre","110 Collins Street","Hobart","7000","08:30-17:00  Monday to Friday, excluding Public Holidays","YES","1.5","http://www.medicareaustralia.gov.au/public/claims/offices.jsp","147.32892300","-42.88218900","155","100000","YES"
"MO","NSW","Wagga Wagga","Shop 1","The Piazza","46-50 Baylis Street","Wagga Wagga","2650","09:00-17:00 Monday to Friday, 9:00-18:00 Thursdays, 09:00-12:30 Saturdays, excluding Public Holidays","YES","1.5","http://www.medicareaustralia.gov.au/public/claims/offices.jsp","147.36907400","-35.11708700","82","10",""
"MO","TAS","Rosny Park","","","8 Bayfield Street","Rosny Park","7018","09:00-17:00 Monday to Friday, 09:00-12:30 Saturdays, excluding Public Holidays","YES","1.5","http://www.medicareaustralia.gov.au/public/claims/offices.jsp","147.37020300","-42.86640700","153","100000",""
"MO","QLD","Ayr","Shop 11","East End Centre","Parker Street","Ayr","4807","09:00-16:30  Monday to Friday, excluding Public Holidays","NO","1.5","http://www.medicareaustralia.gov.au/public/claims/offices.jsp","147.40808800","-19.57281700","92","200000",""
"MO","VIC","Bairnsdale","","","23 Service Street","Bairnsdale","3875","09:00-17:00 Monday to Friday, excluding Public Holidays","YES","1.5","http://www.medicareaustralia.gov.au/public/claims/offices.jsp","147.62947000","-37.82626500","161","100000",""
"MO","NSW","Parkes","","","57 Currajong St","Parkes","2870","09:00-16:30  Monday to Friday, excluding Public Holidays","YES","1.5","http://www.medicareaustralia.gov.au/public/claims/offices.jsp","148.17595642","-33.13431983","63","999",""
"MO","QLD","Bowen","Shop 1","Centrepoint Plaza","16 Richmond Road","Bowen","4805","09:00-16:30  Monday to Friday, excluding Public Holidays","YES","1.5","http://www.medicareaustralia.gov.au/public/claims/offices.jsp","148.23987486","-20.00192125","94","999",""
"MO","NSW","Young","","","130 Lovell Street","Young","2594","09:00-16:30  Monday to Friday, excluding Public Holidays","YES","1.5","http://www.medicareaustralia.gov.au/public/claims/offices.jsp","148.29205119","-34.31099923","87","999",""
"MO","NSW","Dubbo","Shop 14a","Centro Dubbo","177 Macquarie Street","Dubbo","2830","09:00-17:00 Monday to Friday, 09:00-12:30 Saturdays, excluding Public Holidays","YES","1.5","http://www.medicareaustralia.gov.au/public/claims/offices.jsp","148.60065700","-32.25034000","27","10",""
"MO","NSW","Cowra","Shop 16-17","Cowra Plaza","59 Kendall  Street","Cowra","2794","09:00-16:30  Monday to Friday, excluding Public Holidays","YES","1.5","http://www.medicareaustralia.gov.au/public/claims/offices.jsp","148.68871000","-33.83441200","26","100110",""
"MO","ACT","Belconnen","Shop 167, Level 3","Westfield Belconnen","Benjamin Way","Belconnen","2617","09:00-17:00 Monday to Thursday, 9:00-18:00 Fridays, 09:00-12:30 Saturdays, excluding Public Holidays","YES","2","http://www.medicareaustralia.gov.au/public/claims/offices.jsp","149.06605700","-35.23781800","1","999","YES"
"MO","ACT","Greenway - Tuggeranong","Shop 73, Ground Floor","Tuggeranong Hyperdome","Anketell Street","Greenway","2900","09:00-17:00 Monday to Friday, 09:00-12:30 Saturdays, excluding Public Holidays","YES","1.5","http://www.medicareaustralia.gov.au/public/claims/offices.jsp","149.06672800","-35.41621400","3","999",""
"MO","ACT","Phillip - Woden","Shop 66 Ground Level","Westfield Woden","Keltie Street","Woden","2606","09:00-17:00 Monday to Thursday, 9:00-19:00 Fridays, 09:00-12:30 Saturdays, excluding Public Holidays","YES","1.5","http://www.medicareaustralia.gov.au/public/claims/offices.jsp","149.08648700","-35.34573500","4","999","YES"
"MO","NSW","Orange","Shops V6 & V7,","Orange City Centre,","190 Anson Street","Orange","2800","09:00-17:00 Monday to Friday, 09:00-12:30 Saturdays, excluding Public Holidays","YES","1.5","http://www.medicareaustralia.gov.au/public/claims/offices.jsp","149.09861200","-33.28449200","61","100000",""
"MO","NSW","Cooma","","","57 Vale Street","Cooma","2630","09:00-16:30  Monday to Friday, excluding Public Holidays","YES","1.5","http://www.medicareaustralia.gov.au/public/claims/offices.jsp","149.12495600","-36.23603900","25","100000",""
"MO","ACT","Canberra City - Civic","Shop 2","Savings House","8 Petrie Plaza","Canberra City","2600","08:30-17:00  Monday to Friday, excluding Public Holidays","YES","1.5","http://www.medicareaustralia.gov.au/public/claims/offices.jsp","149.13133000","-35.27998600","2","104000",""
"MO","ACT","Gungahlin","Shop 33 (entry via Gungahlin Place West)","Gungahlin Market Place","33 Hibberson Street","Gungahlin","2912","09:00-17:00  Monday to Friday, excluding Public Holidays","YES","1.5","http://www.medicareaustralia.gov.au/public/claims/offices.jsp","149.13484300","-35.18455500","257","999",""
"MO","QLD","Mackay","Shop 125, Ground Level","Caneland Central","Mangrove Road","Mackay","4740","09:00-17:00 Monday to Friday, 09:00-12:30 Saturdays, excluding Public Holidays","YES","1.5","http://www.medicareaustralia.gov.au/public/claims/offices.jsp","149.18047700","-21.13838000","117","200002",""
"MO","NSW","Batemans Bay","Shop 3-4","Fenning Arcade","Orient Street","Batemans Bay","2536","09:00-16:30  Monday to Friday, excluding Public Holidays","YES","1.5","http://www.medicareaustralia.gov.au/public/claims/offices.jsp","150.17744300","-35.70936200","9","999",""
"MO","NSW","Gunnedah","","","183 Conadilly Street","Gunnedah","2380","09:00-16:30  Monday to Friday, excluding Public Holidays","NO","1.5","http://www.medicareaustralia.gov.au/public/claims/offices.jsp","150.25234600","-30.97725300","36","100000",""
"MO","NSW","Katoomba","","","33-35 Waratah Street","Katoomba","2780","08:30-16:30  Monday to Friday, excluding Public Holidays","NO","1.5","http://www.medicareaustralia.gov.au/public/claims/offices.jsp","150.30952600","-33.71711900","40","10",""
"MO","NSW","Bowral","","","266 Bong Bong Street","Bowral","2576","09:00-17:00 Monday to Friday, 09:00-12:30 Saturdays, excluding Public Holidays","YES","1.5","http://www.medicareaustralia.gov.au/public/claims/offices.jsp","150.41820300","-34.47691300","14","200002",""
"MO","NSW","Ulladulla","","","270 Green Street","Ulladulla","2539","08:30-16:30  Monday to Friday, excluding Public Holidays","YES","1.5","http://www.medicareaustralia.gov.au/public/claims/offices.jsp","150.47254600","-35.35692500","80","10",""
"MO","Qld","Rockhampton","Shop 20A","City Centre Plaza","Cnr Bolsover and Fitzroy Street","Rockhampton","4700","09:00-17:00 Monday to Friday, excluding Public Holidays","YES","1.5","http://www.medicareaustralia.gov.au/public/claims/offices.jsp","150.51014300","-23.37691800","124","999",""
"MO","QLD","Nth Rockhampton","Shop 001LA","Stockland Rockhampton","Cnr Yaamba Road & Bruce Hwy","North Rockhampton","4701","09:00-17:00 Monday to Friday, 09:00-12:30 Saturdays, excluding Public Holidays","YES","1.5","http://www.medicareaustralia.gov.au/public/claims/offices.jsp","150.52395233","-23.35196747","122","999",""
"MO","NSW","Springwood","Shop 5","Macquarie Centre","125 Macquarie Road","Springwood","2777","09:00-16:30  Monday to Friday, excluding Public Holidays","YES","1.5","http://www.medicareaustralia.gov.au/public/claims/offices.jsp","150.56713700","-33.69900200","74","100000",""
"MO","NSW","Nowra","Shop 3,","","59 Junction Street (Access From Berry Street)","Nowra","2541","09:00-17:00 Monday to Friday, excluding Public Holidays","YES","1.5","http://www.medicareaustralia.gov.au/public/claims/offices.jsp","150.59998100","-34.87415600","60","100000",""
"MO","NSW","Penrith","Shop 260, Level 2","Westfield Penrith","585 High Street","Penrith","2750","09:00-17:00 Monday to Friday, 9:00-18:00 Thursdays, 09:00-12:30 Saturdays, excluding Public Holidays","YES","1.5","http://www.medicareaustralia.gov.au/public/claims/offices.jsp","150.69397200","-33.75203900","65","999",""
"MO","NSW","Camden","Shop 24","Village Court","180-186 Argyle Street","Camden","2570","09:00-17:00 Monday to Friday, excluding Public Holidays","YES","1.5","http://www.medicareaustralia.gov.au/public/claims/offices.jsp","150.69436455","-34.05525719","17","999",""
"MO","NSW","Richmond","Shop 48","Richmond Marketplace","27 March Street","Richmond","2753","09:00-17:00 Monday to Friday, excluding Public Holidays","YES","1.5","http://www.medicareaustralia.gov.au/public/claims/offices.jsp","150.75568600","-33.60090200","69","10",""
"MO","NSW","Campbelltown","Shop U67","Campelltown Mall","271 Queen Street","Campbelltown","2560","09:00-17:00 Monday to Friday, 9:00-18:00 Thursdays, 09:00-12:30 Saturdays, excluding Public Holidays","YES","1.5","http://www.medicareaustralia.gov.au/public/claims/offices.jsp","150.81141300","-34.06971200","18","999",""
"MO","NSW","Barrack Heights - Shellharbour","Shop 109","Stockland Shellharbour","Lake Entrance Road","Barrack Heights","2528","09:00-17:00 Monday to Friday, 09:00-12:30 Saturdays, excluding Public Holidays","YES","1.5","http://www.medicareaustralia.gov.au/public/claims/offices.jsp","150.83885055","-34.56228517","71","999",""
"MO","NSW","Muswellbrook","Shop 12-13","Muswellbrook Marketplace","22 Sowerby Street","Muswellbrook","2333","09:00-16:30  Monday to Friday, excluding Public Holidays","YES","1.5","http://www.medicareaustralia.gov.au/public/claims/offices.jsp","150.89282600","-32.25461700","54","100000",""
"MO","NSW","Wollongong","Shop N106, Level 1","Wollongong Central","200 Crown Street","Wollongong","2500","09:00-17:00 Monday to Friday, 09:00-12:30 Saturdays, excluding Public Holidays","YES","1.5","http://www.medicareaustralia.gov.au/public/claims/offices.jsp","150.89312200","-34.42483400","85","100001",""
"MO","NSW","Blacktown","Shop 3008, Level 3","Westpoint Shopping Centre","Patrick Street","Blacktown","2148","09:00-17:00 Monday to Friday, 09:00-12:30 Saturdays, excluding Public Holidays","YES","1.5","http://www.medicareaustralia.gov.au/public/claims/offices.jsp","150.90637400","-33.77007000","12","10",""
"MO","NSW","Tamworth","Shop 22","Tamworth Shoppingworld","Bridge Street","Tamworth","2340","09:00-17:00 Monday to Friday, 09:00-12:30 Saturdays, excluding Public Holidays","YES","1.5","http://www.medicareaustralia.gov.au/public/claims/offices.jsp","150.92670900","-31.09134200","75","200002",""
"MO","NSW","Liverpool","Shop 2090, Level 2","Westfield Liverpool","Cnr Elizabeth Drive & Macquarie Street","Liverpool","2170","09:00-17:00 Monday to Friday, 09:00-12:30 Saturdays, excluding Public Holidays","YES","1.5","http://www.medicareaustralia.gov.au/public/claims/offices.jsp","150.92438300","-33.91993500","46","999",""
"MO","NSW","Fairfield","Suite 1, Level 2","Neeta City Shopping Centre","Cnr Smart & Nelson Streets","Fairfield","2165","09:00-17:00  Monday to Friday, excluding Public Holidays","YES","1.5","http://www.medicareaustralia.gov.au/public/claims/offices.jsp","150.95551200","-33.86852900","31","10",""
"MO","NSW","Parramatta","Shop 1115, Level 1","Westfield Parramatta","159 Church Street","Parramatta","2150","09:00-17:00 Monday to Friday, 09:00-12:30 Saturdays, excluding Public Holidays","YES","1.5","http://www.medicareaustralia.gov.au/public/claims/offices.jsp","151.00347100","-33.81748700","64","100000",""
"MO","WA","Geraldton","Shop 25","Centro Northgate","110 Chapman Road","Geraldton","6530","09:00-17:00 Monday to Friday, excluding Public Holidays","YES","1.5","http://www.medicareaustralia.gov.au/public/claims/offices.jsp","114.61576600","-28.76676100","217","10",""
"MO","WA","Bunbury","Shop 32","Stirling Centre","22 Stephen Street","Bunbury","6230","09:00-17:00 Monday to Friday, 09:00-12:30 Saturdays, excluding Public Holidays","YES","1.5","http://www.medicareaustralia.gov.au/public/claims/offices.jsp","115.63804064","-33.32607645","214","999",""
"MO","WA","Rockingham","Shop G023","Rockingham City Shopping Centre","1 Council Avenue","Rockingham","6168","09:00-17:00 Monday to Friday, 09:00-12:30 Saturdays, excluding Public Holidays","YES","1.5","http://www.medicareaustralia.gov.au/public/claims/offices.jsp","115.74341200","-32.29114300","224","10",""
"MO","WA","Mandurah","Shop 109","Mandurah Forum","330 Pinjarra Road","Mandurah","6210","09:00-17:00 Monday to Friday, excluding Public Holidays","YES","1.5","http://www.medicareaustralia.gov.au/public/claims/offices.jsp","115.74208000","-32.53680900","221","10",""
"MO","WA","Fremantle","Shop 12","","39 Adelaide Street","Fremantle","6160","09:00-17:00 Monday to Friday, excluding Public Holidays","YES","1.5","http://www.medicareaustralia.gov.au/public/claims/offices.jsp","115.74931900","-32.05136800","216","10",""
"MO","WA","Hillarys","Shop 44","Whitfords City Shopping Centre","Whitfords Ave","Hillarys","6025","09:00-17:00 Monday to Friday, 9:00-19:00 Thursdays, 09:00-12:30 Saturdays, excluding Public Holidays","YES","1.5","http://www.medicareaustralia.gov.au/public/claims/offices.jsp","115.73830500","-31.81481400","218","200002",""
"MO","WA","Joondalup","Tenancy G3,","Sanori House,","126 Grand Boulevard","Joondalup","6027","09:00-17:00 Monday to Friday, excluding Public Holidays","YES","1.5","http://www.medicareaustralia.gov.au/public/claims/offices.jsp","115.76984200","-31.74175900","246","100000",""
"MO","WA","Karrinyup","Shop 152","Karrinyup Shopping Centre","Karrinyup Road","Karrinyup","6018","09:00-17:00 Monday to Friday, 9:00-18:00 Thursdays, 9:00-12:30 Saturdays, excluding Public Holidays","YES","1.5","http://www.medicareaustralia.gov.au/public/claims/offices.jsp","115.77628800","-31.87794500","220","200002",""
"MO","WA","Subiaco","Shop 1","Subiaco Village","531 Hay Street","Subiaco","6008","08:30-17:00 Monday to Friday, 09:00-12:30 Saturdays, excluding Public Holidays","YES","1.5","http://www.medicareaustralia.gov.au/public/claims/offices.jsp","115.82191900","-31.94711000","225","100000",""
"MO","WA","Booragoon","Shop 13-14","Gateway Business Centre","Marmion Street","Booragoon","6154","08:30-17:00 Monday to Friday, 09:00-12:30 Saturdays, excluding Public Holidays","YES","1.5","http://www.medicareaustralia.gov.au/public/claims/offices.jsp","115.83263742","-32.03667940","213","999",""
"MO","WA","Perth - The Terrace","","","81 St Georges Terrace","Perth","6000","08:30-17:00 Monday to Friday, excluding Public Holidays","YES","1.5","http://www.medicareaustralia.gov.au/public/claims/offices.jsp","115.85776800","-31.95518500","226","10",""
"MO","WA","Morley","Shop 2177","Centro Galleria","Cnr Walter & Collier Roads","Morley","6062","09:00-17:00 Monday to Friday, 9:00-19:00 Thursdays, 09:00-12:30 Saturdays, excluding Public Holidays","YES","1.5","http://www.medicareaustralia.gov.au/public/claims/offices.jsp","115.90220300","-31.89490400","223","999",""
"MO","WA","Cannington","Shop 1044a","Westfield Carousel","1382 Albany Highway","Cannington","6107","09:00-17:00 Monday to Friday, 9:00-19:00 Thursdays, 09:00-12:30 Saturdays, excluding Public Holidays","YES","1.5","http://www.medicareaustralia.gov.au/public/claims/offices.jsp","115.93748524","-32.01906404","215","999","YES"
"MO","WA","Midland","Shop T053A","Midland Gate Shopping Centre","Cale Street","Midland","6056","09:00-17:00 Monday to Friday, 09:00-12:30 Saturdays, excluding Public Holidays","YES","1.5","http://www.medicareaustralia.gov.au/public/claims/offices.jsp","116.00740800","-31.89074300","222","50",""
"MO","WA","Armadale","Shop 67 T2","Armadale Shopping Centre","Jull Street","Armadale","6112","09:00-17:00 Monday to Friday, excluding Public Holidays","YES","1.5","http://www.medicareaustralia.gov.au/public/claims/offices.jsp","116.01625000","-32.15129900","212","200002",""
"MO","WA","Albany","","","15 Peels Place","Albany","6330","08:30 -16:30 Monday to Friday, excluding Public Holidays","YES","1.5","http://www.medicareaustralia.gov.au/public/claims/offices.jsp","117.88398600","-35.02594500","211","10",""
"MO","WA","Kalgoorlie","","","Cnr Porter & Egan Streets","Kalgoorlie","6430","08:30-16:30 Monday to Friday, excluding Public Holidays","YES","1.5","http://www.medicareaustralia.gov.au/public/claims/offices.jsp","121.47681500","-30.74542500","219","10",""
"MO","NT","Darwin","Shop 14 & 15","The Galleria","Smith Street Mall","Darwin","800","09:00-17:00 Monday to Friday, excluding Public Holidays","YES","1.5","http://www.medicareaustralia.gov.au/public/claims/offices.jsp","130.84250585","-12.46373121","137","999",""
"MO","NT","Casuarina","Shop 30, Ground Floor","Casuarina Square","247 Trower Road","Casuarina","810","09:00-17:00 Monday to Friday, 9:00-18:00 Fridays, 09:00-12:30 Saturdays, excluding Public Holidays","YES","1.5","http://www.medicareaustralia.gov.au/public/claims/offices.jsp","130.88221600","-12.37702700","136","100000",""
"MO","NT","Palmerston","Shop T02,","Palmerston Shopping Centre,","10 Temple Terrace","Palmerston","830","09:00-17:00 Monday to Friday, 09:00-12:30 Saturdays, excluding Public Holidays","YES","1.5","http://www.medicareaustralia.gov.au/public/claims/offices.jsp","130.98591000","-12.48080100","245","200000",""
"MO","NT","Alice Springs","Shop 38","Yeperenye Shopping Centre","36-38 Hartley Street","Alice Springs","870","09:00-17:00 Monday to Friday, excluding Public Holidays","YES","1.5","http://www.medicareaustralia.gov.au/public/claims/offices.jsp","133.88161600","-23.69885800","135","10",""
"MO","SA","Port Lincoln","Suite 6","Stamford House","80 Tasman Terrace","Port Lincoln","5606","09:00-16:30 Monday to Friday, excluding Public Holidays","YES","1.5","http://www.medicareaustralia.gov.au/public/claims/offices.jsp","135.85815900","-34.72018400","147","50",""
"MO","SA","Whyalla","Shop 48","Westland Shopping Centre","Nicolson Avenue","Whyalla Norrie","5608","09:00-16:30 Monday to Friday, excluding Public Holidays","YES","1.5","http://www.medicareaustralia.gov.au/public/claims/offices.jsp","137.53134100","-33.02665900","150","200110",""
"MO","SA","Port Augusta","","","93 Commercial Road","Port Augusta","5700","09:00-16:30  Monday to Friday, excluding Public Holidays","YES","1.5","http://www.medicareaustralia.gov.au/public/claims/offices.jsp","137.76351200","-32.49371800","146","100000",""
"MO","SA","Port Pirie","Shop 10 & 11","Flinders Arcade","82 Ellen Street","Port Pirie","5540","09:00-16.30 Monday to Friday, excluding Public Holidays","YES","1.5","http://www.medicareaustralia.gov.au/public/claims/offices.jsp","138.01049600","-33.17610000","148","100001",""
"MO","SA","Noarlunga Centre - Colonnades","Shop 75","Colonnades Shopping Centre","Beach Road","Noarlunga Centre","5168","09:00-17:00 Monday to Friday, 9:00-19:00 Thursdays,09:00-12:30 Saturdays, excluding Public Holidays","YES","1.5","http://www.medicareaustralia.gov.au/public/claims/offices.jsp","138.49536200","-35.14205700","243","200000",""
"MO","SA","West Lakes","Shop 297-298, Ground Floor","Westfield West Lakes","111 West Lakes Boulevarde","West Lakes","5021","09:00-17:00 Monday to Friday, 09:00-19:00 Thursdays, 09:00-12:30 Saturdays, excluding Public Holidays","YES","1.5","http://www.medicareaustralia.gov.au/public/claims/offices.jsp","138.49355200","-34.87722000","149","100000","YES"
"MO","SA","Oaklands Park - Marion","Shop 1036, Ground Floor","Westfield Shoppingtown","297 Diagonal Road","Oaklands Park","5046","09:00-17:00 Monday to Friday, 9:00-19:00 Thursdays, 09:00-12:30 Saturdays, excluding Public Holidays","YES","1.5","http://www.medicareaustralia.gov.au/public/claims/offices.jsp","138.54400500","-35.01344600","143","100000","YES"
"MO","SA","Adelaide - Currie Street","","","30 Currie Street","Adelaide","5000","08:30-17:00  Monday to Friday, excluding Public Holidays","YES","1.5","http://www.medicareaustralia.gov.au/public/claims/offices.jsp","138.59855100","-34.92435700","140","100000",""
"MO","SA","Elizabeth","Shop 55 Oxenham Mall","Elizabeth Shopping Centre","50 Elizabeth Way","Elizabeth","5112","09:00-17:00 Monday to Friday, excluding Public Holidays","YES","1.5","http://www.medicareaustralia.gov.au/public/claims/offices.jsp","138.66858900","-34.71572500","141","50",""
"MO","VIC","Geelong","Shop 60-61, Level 1","Market Square Shopping Centre","Moorabool Street","Geelong","3220","09:00-17:00 Monday to Friday, 9:00-18:00 Friday, 09:00-12:30 Saturdays, excluding Public Holidays","YES","1.5","http://www.medicareaustralia.gov.au/public/claims/offices.jsp","144.35932800","-38.15035800","182","200002",""
"MO","VIC","Melton","Shop T68","Woodgrove Shopping Centre","533 High Street","Melton","3337","09:00-17:00 Monday to Friday, 09:00-12:30 Saturdays, excluding Public Holidays","YES","2","http://www.medicareaustralia.gov.au/public/claims/offices.jsp","144.56338600","-37.68592700","189","999",""
"MO","VIC","Werribee","","","72 Watton Street","Werribee","3030","09:00-17:00 Monday to Friday, excluding Public Holidays","YES","1.5","http://www.medicareaustralia.gov.au/public/claims/offices.jsp","144.65867000","-37.90272100","209","100000",""
"MO","VIC","Echuca","","","69 Heygarth Stree","Echuca","3564","8:30 -16:30 Monday to Friday, excluding Public Holidays","YES","1.5","http://www.medicareaustralia.gov.au/public/claims/offices.jsp","144.74634100","-36.12483900","178","999",""
"MO","VIC","Altona Gate","Shop U9, Level 2","Altona Gate Shopping Centre","124-134 Millers Road","Altona North","3025","09:00-17:00 Monday to Friday, 9:00-18:00 Thursdays, 09:00-12:30 Saturdays, excluding Public Holidays","YES","1.5","http://www.medicareaustralia.gov.au/public/claims/offices.jsp","144.84870600","-37.82801100","159","999",""
"MO","VIC","Highpoint","Shop 2011, Level 2","Highpoint City","200 Rosamond Road","Maribyrnong","3032","09:00-17:00 Monday to Friday, 9:00-19:00 Thursdays, 09:00-12:30 Saturdays, excluding Public Holidays","YES","1.5","http://www.medicareaustralia.gov.au/public/claims/offices.jsp","144.88659300","-37.77017700","186","100000",""
"MO","VIC","Airport West","Shop 77","Westfield Shoppingtown","Louis Street","Airport West","3042","09:00-17:00 Monday to Friday, 09:00-18:00 Thursday, 09:00-12:30 Saturday, excluding Public Holidays","YES","1.5","http://www.medicareaustralia.gov.au/public/claims/offices.jsp","144.88816100","-37.71665700","158","200002",""
"MO","VIC","Rosebud","Shop 15","Rosebud Village Shopping Centre","967 Point Nepean Road","Rosebud","3939","09:00-17:00 Monday to Friday, excluding Public Holidays","YES","15","http://www.medicareaustralia.gov.au/public/claims/offices.jsp","144.90752900","-38.35498300","239","100000","YES"
"MO","VIC","Broadmeadows","Shop 42","Broadmeadows Shopping Centre","Pascoe Vale Road","Broadmeadows","3047","09:00-17:00 Monday to Friday, excluding Public Holidays","YES","1.5","http://www.medicareaustralia.gov.au/public/claims/offices.jsp","144.92156400","-37.67988600","167","200002",""
"MO","VIC","Moonee Ponds","","","122A Puckle Street","Moonee Ponds","3039","09:00-17:00  Monday to Friday, excluding Public Holidays","YES","1.5","http://www.medicareaustralia.gov.au/public/claims/offices.jsp","144.92103700","-37.76664600","191","100000",""
"MO","VIC","Melbourne - City West","Shop 11,","","600 Collins Street","Melbourne","3000","08:30-17:00  Monday to Friday, excluding Public Holidays","YES","1.5","http://www.medicareaustralia.gov.au/public/claims/offices.jsp","144.95474600","-37.81857100","165","999",""
"MO","VIC","Melbourne - Galleria","Shop E17","The Galleria Shopping Plaza","385 Bourke Street","Melbourne","3000","08:30-17:00  Monday to Friday, excluding Public Holidays","YES","1.5","http://www.medicareaustralia.gov.au/public/claims/offices.jsp","144.96258800","-37.81449600","169","10",""
"MO","VIC","Coburg","Shop 16","Walkers Arcade","471 Sydney Road","Coburg","3058","09:00-17:00 Monday to Friday, excluding Public Holidays","YES","1.5","http://www.medicareaustralia.gov.au/public/claims/offices.jsp","144.96637000","-37.74209800","172","100000",""
"MO","VIC","Melbourne - City East","Shop 7,","Southern Cross 1,","121 Exhibition Street (Access via Bourke Street)","Melbourne","3000","08:30-17:00 Monday to Friday, excluding Public Holidays","YES","1.5","http://www.medicareaustralia.gov.au/public/claims/offices.jsp","144.96979500","-37.81242100","174","100000",""
"MO","NSW","Belmont NSW","Shop 17-18","Belmont Central Shopping Centre","1 Singleton Street","Belmont","2280","09:00-17:00 Monday to Friday, excluding Public Holidays","YES","0","http://www.medicareaustralia.gov.au/public/claims/offices.jsp","151.65913900","-33.03659700","268","10","NO"
"MO","WA","Belmont WA","Shop 30","Belmont Forum Shopping Centre","227 Belmont Avenue","Cloverdale","6105","09:00-17:00 Monday to Friday, excluding Public Holidays","YES","0","http://www.medicareaustralia.gov.au/public/claims/offices.jsp","115.93367700","-31.96584500","269","10","NO"
"MO","NSW","Warrawong - EFT only","Suite 1, Gallery Level","Westfield Warrawong","Cnr King and Cowper Streets","Warrawong","2502","08:30-16:30 Monday to Friday, excluding Public Holidays","YES","0","http://www.medicareaustralia.gov.au/public/claims/offices.jsp","150.88821300","-34.48552200","270","999","NO"
